[Satellite]
VERSION=1.1
NAME=MOLNIYA 3-47
NICKNAME=MOLNIYA 3-47
TLE1=1 23642U 95042A   22341.57794634 -.00000746  00000+0  00000+0 0  9990
TLE2=2 23642  64.2896  53.8691 6953982 283.5230  13.0184  2.01933283200517
STATUS=0
